OBJECT_NAME,OBJECT_ID,EPOCH,MEAN_MOTION,ECCENTRICITY,INCLINATION,RA_OF_ASC_NODE,ARG_OF_PERICENTER,MEAN_ANOMALY,EPHEMERIS_TYPE,CLASSIFICATION_TYPE,NORAD_CAT_ID,ELEMENT_SET_NO,REV_AT_EPOCH,BSTAR,MEAN_MOTION_DOT,MEAN_MOTION_DDOT
SWARM A,2013-067B,2026-06-08T06:00:51.235200,15.50773100,.00030028,87.3327,59.5607,91.6879,268.4726,0,U,39452,999,70486,.16656493E-3,.9629E-4,0
SWARM C,2013-067C,2026-06-08T06:00:41.456448,15.50775633,.00029644,87.3327,58.1420,91.6327,268.5273,0,U,39453,999,70482,.16735975E-3,.9676E-4,0
BRITE-CA1 (TORONTO),2014-033L,2026-06-07T22:23:48.661440,14.72664620,.00774803,97.9728,288.0323,307.1538,52.2610,0,U,40020,999,64085,.12745632E-3,.797E-5,0
OCO 2,2014-035A,2026-06-08T07:07:48.304704,14.57104089,.00014796,98.2015,100.7257,87.5394,272.5973,0,U,40059,999,63475,.10573996E-3,.431E-5,0
BRITE-PL2 (HEWELIUSZ),2014-049B,2026-06-08T04:49:33.608352,14.94564336,.0015155,97.9088,271.1327,135.2665,224.9780,0,U,40119,999,64010,.23888273E-3,.2529E-4,0
MMS 1,2015-011A,2026-06-08T08:00:04.000032,0.28324344,.8337739,72.1893,348.8932,167.2291,115.8452,0,U,40482,999,138,0,-.85E-6,0
MMS 2,2015-011B,2026-06-08T08:00:04.000032,0.28324349,.83385194,72.1895,348.8954,167.2347,115.8336,0,U,40483,999,138,0,-.85E-6,0
MMS 3,2015-011C,2026-06-08T08:00:04.000032,0.28324324,.83377106,72.1925,348.8999,167.2292,115.8301,0,U,40484,999,138,0,-.85E-6,0
MMS 4,2015-011D,2026-06-08T08:00:04.000032,0.28324314,.83373123,72.1888,348.8957,167.2369,115.8184,0,U,40485,999,138,0,-.85E-6,0
ASTROSAT,2015-052A,2026-06-08T06:41:10.601952,14.82493087,.00085434,5.9954,219.4891,268.4611,91.4538,0,U,40930,999,57850,.12145011E-3,.167E-4,0
DAMPE,2015-078A,2026-06-08T06:40:44.294016,15.30763252,.00136738,97.4563,164.7021,104.2937,255.9823,0,U,41173,999,58318,.56838597E-4,.1616E-4,0
PISAT,2016-059B,2026-06-07T22:45:38.049984,14.68968197,.00277474,97.8178,159.7983,233.3279,126.5376,0,U,41784,999,51838,.184682E-3,.104E-4,0
HXMT (HUIYAN),2017-034A,2026-06-08T07:40:35.152320,15.18414098,.00301837,43.0130,232.4157,88.5990,271.8316,0,U,42758,999,49631,.20550169E-3,.4111E-4,0
FLYING LAPTOP,2017-042G,2026-06-08T07:40:37.873056,15.01087719,.00191187,97.4657,315.1968,150.6529,209.5774,0,U,42831,999,48512,.28241932E-3,.3569E-4,0
ZHANGHENG 1-01 (CSES-1),2018-015C,2026-06-08T06:08:54.752064,15.20697493,.00171753,97.6868,324.7381,300.0238,59.9292,0,U,43194,999,46328,.29613356E-3,.6461E-4,0
SALSAT,2020-068K,2026-06-07T23:42:24.407136,15.29667638,.00089117,97.8853,161.4934,345.1768,14.9208,0,U,46495,999,31395,.28698063E-3,.8175E-4,0
IXPE,2021-121A,2026-06-08T08:00:04.000032,15.10172927,.00075772,0.2320,24.2643,303.6699,341.2779,0,U,49954,999,589,.53128257E-3,.9868E-4,0
SMILE,2026-109A,2026-05-24T15:40:35.120928,14.57062785,.00091232,70.0007,229.2745,259.5159,100.4951,0,U,69123,999,80,-.42378883E-3,-.1976E-4,0
