SWARM A                 
1 39452U 13067B   26159.25059300  .00009629  00000+0  16656-3 0  9999
2 39452  87.3327  59.5607 0003002  91.6879 268.4726 15.50773100704861
SWARM C                 
1 39453U 13067C   26159.25047982  .00009676  00000+0  16736-3 0  9994
2 39453  87.3327  58.1420 0002964  91.6327 268.5273 15.50775633704821
BRITE-CA1 (TORONTO)     
1 40020U 14033L   26158.93320210  .00000797  00000+0  12746-3 0  9994
2 40020  97.9728 288.0323 0077480 307.1538  52.2610 14.72664620640856
OCO 2                   
1 40059U 14035A   26159.29708686  .00000431  00000+0  10574-3 0  9997
2 40059  98.2015 100.7257 0001479  87.5394 272.5973 14.57104089634753
BRITE-PL2 (HEWELIUSZ)   
1 40119U 14049B   26159.20108343  .00002529  00000+0  23888-3 0  9996
2 40119  97.9088 271.1327 0015155 135.2665 224.9780 14.94564336640104
MMS 1                   
1 40482U 15011A   26159.33337963 -.00000085  00000+0  00000+0 0  9998
2 40482  72.1893 348.8932 8337739 167.2291 115.8452  0.28324344  1383
MMS 2                   
1 40483U 15011B   26159.33337963 -.00000085  00000+0  00000+0 0  9999
2 40483  72.1895 348.8954 8338519 167.2347 115.8336  0.28324349  1385
MMS 3                   
1 40484U 15011C   26159.33337963 -.00000085  00000+0  00000+0 0  9990
2 40484  72.1925 348.8999 8337710 167.2292 115.8301  0.28324324  1385
MMS 4                   
1 40485U 15011D   26159.33337963 -.00000085  00000+0  00000+0 0  9991
2 40485  72.1888 348.8957 8337312 167.2369 115.8184  0.28324314  1389
ASTROSAT                
1 40930U 15052A   26159.27859493  .00001670  00000+0  12145-3 0  9998
2 40930   5.9954 219.4891 0008543 268.4611  91.4538 14.82493087578503
DAMPE                   
1 41173U 15078A   26159.27829044  .00001616  00000+0  56839-4 0  9994
2 41173  97.4563 164.7021 0013673 104.2937 255.9823 15.30763252583182
PISAT                   
1 41784U 16059B   26158.94835706  .00001040  00000+0  18468-3 0  9993
2 41784  97.8178 159.7983 0027747 233.3279 126.5376 14.68968197518388
HXMT (HUIYAN)           
1 42758U 17034A   26159.31985130  .00004111  00000+0  20550-3 0  9995
2 42758  43.0130 232.4157 0030183  88.5990 271.8316 15.18414098496319
FLYING LAPTOP           
1 42831U 17042G   26159.31988279  .00003569  00000+0  28242-3 0  9995
2 42831  97.4657 315.1968 0019118 150.6529 209.5774 15.01087719485122
ZHANGHENG 1-01 (CSES-1) 
1 43194U 18015C   26159.25618926  .00006461  00000+0  29613-3 0  9998
2 43194  97.6868 324.7381 0017175 300.0238  59.9292 15.20697493463287
SALSAT                  
1 46495U 20068K   26158.98778249  .00008175  00000+0  28698-3 0  9996
2 46495  97.8853 161.4934 0008911 345.1768  14.9208 15.29667638313959
IXPE                    
1 49954U 21121A   26159.33337963  .00009868  00000+0  53128-3 0  9990
2 49954   0.2320  24.2643 0007577 303.6699 341.2779 15.10172927  5893
SMILE                   
1 69123U 26109A   26144.65318427 -.00001976  00000+0 -42379-3 0  9994
2 69123  70.0007 229.2745 0009123 259.5159 100.4951 14.57062785   802
